NUSAT-50 (NANCY ROMAN)  
1 60493U 24149AB  26068.80227738  .00012094  00000+0  42252-3 0  9994
2 60493  97.3817 150.7693 0002523 238.0469 122.0527 15.29713355 86930
STARLINK-35860          
1 66881U 25283D   26068.20170508  .00031095  00000+0  10574-2 0  9990
2 66881  53.1627  26.1336 0001027 104.7371 255.3743 15.30206831 15777
